{
  "type": "FeatureCollection",
  "features": [
    {
      "type": "Feature",
      "properties": {
        "norad_id": 24876,
        "name": "GPS BIIR-2  (PRN 13)",
        "group": "gnss",
        "lat": 49.143401705068555,
        "lon": -125.8206009535216,
        "alt_km": 20035.217560317913,
        "timestamp": "2025-12-17T09:00:17.390972+00:00",
        "meta_object_name": "GPS BIIR-2  (PRN 13)",
        "meta_object_id": "1997-035A",
        "meta_epoch": "2025-12-16T17:18:41.060448",
        "meta_mean_motion": 2.00563709,
        "meta_eccentricity": 0.00967839,
        "meta_inclination": 55.8971,
        "meta_ra_of_asc_node": 105.7131,
        "meta_arg_of_pericenter": 56.9876,
        "meta_mean_anomaly": 303.9087,
        "meta_ephemeris_type": 0,
        "meta_classification_type": "U",
        "meta_norad_cat_id": 24876,
        "meta_element_set_no": 999,
        "meta_rev_at_epoch": 20829,
        "meta_bstar": 0,
        "meta_mean_motion_dot": -2.3e-07,
        "meta_mean_motion_ddot": 0,
        "tle_line1": "1 24876U 97035A   25350.72130857 -.00000023  00000+0  00000+0 0  9993",
        "tle_line2": "2 24876  55.8971 105.7131 0096783  56.9876 303.9087  2.00563709208299"
      },
      "geometry": {
        "type": "Point",
        "coordinates": [
          -125.8206009535216,
          49.143401705068555
        ]
      }
    },
    {
      "type": "Feature",
      "properties": {
        "norad_id": 26360,
        "name": "GPS BIIR-4  (PRN 20)",
        "group": "gnss",
        "lat": -20.077951314188283,
        "lon": -138.52759702913752,
        "alt_km": 20102.499943357896,
        "timestamp": "2025-12-17T09:00:17.391016+00:00",
        "meta_object_name": "GPS BIIR-4  (PRN 20)",
        "meta_object_id": "2000-025A",
        "meta_epoch": "2025-12-16T19:52:20.548704",
        "meta_mean_motion": 2.00567475,
        "meta_eccentricity": 0.00388903,
        "meta_inclination": 55.0476,
        "meta_ra_of_asc_node": 26.6725,
        "meta_arg_of_pericenter": 242.3816,
        "meta_mean_anomaly": 287.5593,
        "meta_ephemeris_type": 0,
        "meta_classification_type": "U",
        "meta_norad_cat_id": 26360,
        "meta_element_set_no": 999,
        "meta_rev_at_epoch": 18761,
        "meta_bstar": 0,
        "meta_mean_motion_dot": -8.3e-07,
        "meta_mean_motion_ddot": 0,
        "tle_line1": "1 26360U 00025A   25350.82801561 -.00000083  00000+0  00000+0 0  9990",
        "tle_line2": "2 26360  55.0476  26.6725 0038890 242.3816 287.5593  2.00567475187616"
      },
      "geometry": {
        "type": "Point",
        "coordinates": [
          -138.52759702913752,
          -20.077951314188283
        ]
      }
    },
    {
      "type": "Feature",
      "properties": {
        "norad_id": 26407,
        "name": "GPS BIIR-5  (PRN 22)",
        "group": "gnss",
        "lat": 36.04138987067981,
        "lon": -106.83682358021969,
        "alt_km": 20254.542372630684,
        "timestamp": "2025-12-17T09:00:17.391034+00:00",
        "meta_object_name": "GPS BIIR-5  (PRN 22)",
        "meta_object_id": "2000-040A",
        "meta_epoch": "2025-12-16T19:48:16.745184",
        "meta_mean_motion": 2.00568089,
        "meta_eccentricity": 0.01257985,
        "meta_inclination": 54.8898,
        "meta_ra_of_asc_node": 222.4065,
        "meta_arg_of_pericenter": 301.879,
        "meta_mean_anomaly": 65.6542,
        "meta_ephemeris_type": 0,
        "meta_classification_type": "U",
        "meta_norad_cat_id": 26407,
        "meta_element_set_no": 999,
        "meta_rev_at_epoch": 18629,
        "meta_bstar": 0,
        "meta_mean_motion_dot": 6.6e-07,
        "meta_mean_motion_ddot": 0,
        "tle_line1": "1 26407U 00040A   25350.82519381  .00000066  00000+0  00000+0 0  9995",
        "tle_line2": "2 26407  54.8898 222.4065 0125798 301.8790  65.6542  2.00568089186296"
      },
      "geometry": {
        "type": "Point",
        "coordinates": [
          -106.83682358021969,
          36.04138987067981
        ]
      }
    },
    {
      "type": "Feature",
      "properties": {
        "norad_id": 27663,
        "name": "GPS BIIR-8  (PRN 16)",
        "group": "gnss",
        "lat": -1.5316314128866382,
        "lon": 43.27971624555133,
        "alt_km": 20430.892843028134,
        "timestamp": "2025-12-17T09:00:17.391048+00:00",
        "meta_object_name": "GPS BIIR-8  (PRN 16)",
        "meta_object_id": "2003-005A",
        "meta_epoch": "2025-12-16T09:06:39.754656",
        "meta_mean_motion": 2.00570777,
        "meta_eccentricity": 0.01475932,
        "meta_inclination": 54.9225,
        "meta_ra_of_asc_node": 222.2335,
        "meta_arg_of_pericenter": 51.8511,
        "meta_mean_anomaly": 129.8718,
        "meta_ephemeris_type": 0,
        "meta_classification_type": "U",
        "meta_norad_cat_id": 27663,
        "meta_element_set_no": 999,
        "meta_rev_at_epoch": 16764,
        "meta_bstar": 0,
        "meta_mean_motion_dot": 6.3e-07,
        "meta_mean_motion_ddot": 0,
        "tle_line1": "1 27663U 03005A   25350.37962679  .00000063  00000+0  00000+0 0  9993",
        "tle_line2": "2 27663  54.9225 222.2335 0147593  51.8511 129.8718  2.00570777167647"
      },
      "geometry": {
        "type": "Point",
        "coordinates": [
          43.27971624555133,
          -1.5316314128866382
        ]
      }
    },
    {
      "type": "Feature",
      "properties": {
        "norad_id": 28190,
        "name": "GPS BIIR-11 (PRN 19)",
        "group": "gnss",
        "lat": -16.802335617562292,
        "lon": -89.1926109897257,
        "alt_km": 20469.929421355577,
        "timestamp": "2025-12-17T09:00:17.391061+00:00",
        "meta_object_name": "GPS BIIR-11 (PRN 19)",
        "meta_object_id": "2004-009A",
        "meta_epoch": "2025-12-14T15:49:47.343936",
        "meta_mean_motion": 2.00560762,
        "meta_eccentricity": 0.01083648,
        "meta_inclination": 54.9839,
        "meta_ra_of_asc_node": 283.1415,
        "meta_arg_of_pericenter": 167.6892,
        "meta_mean_anomaly": 10.6801,
        "meta_ephemeris_type": 0,
        "meta_classification_type": "U",
        "meta_norad_cat_id": 28190,
        "meta_element_set_no": 999,
        "meta_rev_at_epoch": 15924,
        "meta_bstar": 0,
        "meta_mean_motion_dot": -7.9e-07,
        "meta_mean_motion_ddot": 0,
        "tle_line1": "1 28190U 04009A   25348.65957574 -.00000079  00000+0  00000+0 0  9998",
        "tle_line2": "2 28190  54.9839 283.1415 0108364 167.6892  10.6801  2.00560762159240"
      },
      "geometry": {
        "type": "Point",
        "coordinates": [
          -89.1926109897257,
          -16.802335617562292
        ]
      }
    },
    {
      "type": "Feature",
      "properties": {
        "norad_id": 28474,
        "name": "GPS BIIR-13 (PRN 02)",
        "group": "gnss",
        "lat": 32.878025613218924,
        "lon": -1.1241762701807583,
        "alt_km": 20186.231369628695,
        "timestamp": "2025-12-17T09:00:17.391074+00:00",
        "meta_object_name": "GPS BIIR-13 (PRN 02)",
        "meta_object_id": "2004-045A",
        "meta_epoch": "2025-12-16T10:54:46.948320",
        "meta_mean_motion": 2.00569788,
        "meta_eccentricity": 0.01708358,
        "meta_inclination": 55.2388,
        "meta_ra_of_asc_node": 332.2562,
        "meta_arg_of_pericenter": 309.4167,
        "meta_mean_anomaly": 145.3264,
        "meta_ephemeris_type": 0,
        "meta_classification_type": "U",
        "meta_norad_cat_id": 28474,
        "meta_element_set_no": 999,
        "meta_rev_at_epoch": 15476,
        "meta_bstar": 0,
        "meta_mean_motion_dot": -9.1e-07,
        "meta_mean_motion_ddot": 0,
        "tle_line1": "1 28474U 04045A   25350.45471005 -.00000091  00000+0  00000+0 0  9998",
        "tle_line2": "2 28474  55.2388 332.2562 0170835 309.4167 145.3264  2.00569788154768"
      },
      "geometry": {
        "type": "Point",
        "coordinates": [
          -1.1241762701807583,
          32.878025613218924
        ]
      }
    },
    {
      "type": "Feature",
      "properties": {
        "norad_id": 28874,
        "name": "GPS BIIRM-1 (PRN 17)",
        "group": "gnss",
        "lat": -0.15801683909189607,
        "lon": -79.61378828123469,
        "alt_km": 20035.772398642166,
        "timestamp": "2025-12-17T09:00:17.391088+00:00",
        "meta_object_name": "GPS BIIRM-1 (PRN 17)",
        "meta_object_id": "2005-038A",
        "meta_epoch": "2025-12-15T21:22:37.236864",
        "meta_mean_motion": 2.00578274,
        "meta_eccentricity": 0.01315557,
        "meta_inclination": 55.0291,
        "meta_ra_of_asc_node": 280.574,
        "meta_arg_of_pericenter": 293.6034,
        "meta_mean_anomaly": 72.8859,
        "meta_ephemeris_type": 0,
        "meta_classification_type": "U",
        "meta_norad_cat_id": 28874,
        "meta_element_set_no": 999,
        "meta_rev_at_epoch": 14816,
        "meta_bstar": 0,
        "meta_mean_motion_dot": -6.8e-07,
        "meta_mean_motion_ddot": 0,
        "tle_line1": "1 28874U 05038A   25349.89070876 -.00000068  00000+0  00000+0 0  9996",
        "tle_line2": "2 28874  55.0291 280.5740 0131555 293.6034  72.8859  2.00578274148160"
      },
      "geometry": {
        "type": "Point",
        "coordinates": [
          -79.61378828123469,
          -0.15801683909189607
        ]
      }
    }
  ]
}